OBJECT B                
1 51825U 22019B   24076.89161054  .00008827  00000+0  42086-3 0  9995
2 51825  97.4372 149.5088 0015073 197.5987 162.4728 15.19231474113206
